start_ip,end_ip,join_key,city,region,country,latitude,longitude,postal_code,timezone
1.46.216.106,1.46.216.107,1.46.0.0,Pluak Daeng,Rayong,TH,12.97122,101.21463,21140,Asia/Bangkok
1.47.95.146,1.47.95.147,1.47.0.0,Pak Thong Chai,Nakhon Ratchasima,TH,14.7226,102.02512,30150,Asia/Bangkok
100.16.80.0,100.16.80.255,100.16.0.0,Arbutus,Maryland,US,39.25455,-76.69997,21250,America/New_York
106.192.51.58,106.192.51.59,106.192.0.0,Pānīpat,Haryana,IN,29.39727,76.99456,132104,Asia/Kolkata
105.131.176.0,105.131.176.255,105.131.0.0,Casablanca,Casablanca-Settat,MA,33.58831,-7.61138,29640,Africa/Casablanca
106.128.194.107,106.128.194.114,106.128.0.0,Osaka,Ōsaka,JP,34.69374,135.50218,543-0062,Asia/Tokyo
1.125.28.230,1.125.28.230,1.125.0.0,Alyangula,Northern Territory,AU,-13.85413,136.42129,0885,Australia/Darwin
101.181.41.100,101.181.41.103,101.181.0.0,Frankston East,Victoria,AU,-38.13333,145.13333,3199,Australia/Melbourne
101.51.154.46,101.51.154.55,101.51.0.0,Borabue,Maha Sarakham,TH,16.04179,103.11506,44130,Asia/Bangkok
105.109.124.35,105.109.124.35,105.109.0.0,Constantine,Constantine,DZ,36.365,6.61472,04011,Africa/Algiers
105.244.41.224,105.244.41.231,105.244.0.0,Ga-Kgapane,Limpopo,ZA,-23.64378,30.22324,0815,Africa/Johannesburg
103.189.42.0,103.189.43.255,103.189.0.0,Paris,Île-de-France,FR,48.85341,2.3488,75000,Europe/Paris
103.167.243.44,103.167.243.45,103.167.0.0,Katangi,Madhya Pradesh,IN,21.77369,79.80513,470051,Asia/Kolkata
101.180.19.144,101.180.19.151,101.180.0.0,Deniliquin,New South Wales,AU,-35.53245,144.95364,2710,Australia/Sydney
106.155.65.64,106.155.65.127,106.155.0.0,Tokyo,Tokyo,JP,35.6895,139.69171,101-8656,Asia/Tokyo
106.203.2.124,106.203.2.125,106.203.0.0,Arni,Tamil Nadu,IN,12.59431,79.21845,606903,Asia/Kolkata
1.145.34.162,1.145.34.163,1.145.0.0,Pambula Beach,New South Wales,AU,-36.9417,149.90343,2549,Australia/Sydney
105.103.142.187,105.103.142.187,105.103.0.0,Blida,Blida,DZ,36.47004,2.8277,35012,Africa/Algiers
101.109.85.128,101.109.85.135,101.109.0.0,Ban Bang Bao,Trat,TH,11.9727,102.31168,23120,Asia/Bangkok
105.97.208.154,105.97.208.154,105.97.0.0,Algiers,Algiers,DZ,36.73225,3.08746,16006,Africa/Algiers
101.167.29.141,101.167.29.143,101.167.0.0,Townsville,Queensland,AU,-19.26639,146.80569,4810,Australia/Brisbane
103.164.36.0,103.164.36.255,103.164.0.0,Ho Chi Minh City,Ho Chi Minh,VN,10.82302,106.62965,71606,Asia/Ho_Chi_Minh
101.109.54.195,101.109.54.195,101.109.0.0,Chanthaburi,Chanthaburi,TH,12.60961,102.10447,22000,Asia/Bangkok
106.195.89.133,106.195.89.133,106.195.0.0,Dehri,Bihar,IN,24.9794,84.0277,821303,Asia/Kolkata
104.245.30.156,104.245.30.159,104.245.0.0,Chicago,Illinois,US,41.8426,-87.6306,60616,America/Chicago
101.118.52.204,101.118.52.247,101.118.0.0,Perth,Western Australia,AU,-32.0845,115.7795,6963,Australia/Perth
104.72.5.114,104.72.5.115,104.72.0.0,Oak Hill,Virginia,US,38.9258,-77.40156,20171,America/New_York
1.223.127.64,1.223.127.119,1.223.0.0,Seoul,Seoul,KR,37.566,126.9784,03141,Asia/Seoul
104.241.140.156,104.241.140.164,104.241.0.0,Oshawa,Ontario,CA,43.90012,-78.84957,L1G,America/Toronto
104.224.98.76,104.224.98.79,104.224.0.0,Greater Napanee,Ontario,CA,44.25012,-76.94944,K7R,America/Toronto
101.165.164.64,101.165.164.67,101.165.0.0,Brisbane,Queensland,AU,-27.50265,152.97678,4068,Australia/Brisbane
105.71.144.136,105.71.144.137,105.71.0.0,Beni Mellal,Béni Mellal-Khénifra,MA,32.33725,-6.34983,22702,Africa/Casablanca
106.171.18.206,106.171.18.206,106.171.0.0,Okayama,Okayama,JP,34.6647,133.8968,700-0055,Asia/Tokyo
104.249.6.114,104.249.6.115,104.249.0.0,Boca Raton,Florida,US,26.35869,-80.0831,33429,America/New_York
1.159.161.132,1.159.161.175,1.159.0.0,Perth,Western Australia,AU,-31.80035,115.7952,6026,Australia/Perth
106.205.224.168,106.205.224.175,106.205.0.0,Navsari,Gujarat,IN,20.94237,72.92467,396421,Asia/Kolkata
103.2.235.164,103.2.235.165,103.2.0.0,Madikeri,Karnataka,IN,12.42602,75.7382,571237,Asia/Kolkata
103.141.97.73,103.141.97.74,103.141.0.0,Tokyo,Tokyo,JP,35.6895,139.69171,101-8656,Asia/Tokyo
104.160.158.241,104.160.158.242,104.160.0.0,São Paulo,São Paulo,BR,-23.5475,-46.63611,01000-000,America/Sao_Paulo
101.186.128.216,101.186.128.219,101.186.0.0,Bendigo,Victoria,AU,-36.7582,144.2802,3552,Australia/Melbourne
101.58.66.0,101.58.66.1,101.58.0.0,Arezzo,Tuscany,IT,43.46276,11.88068,52100,Europe/Rome
106.132.169.8,106.132.169.15,106.132.0.0,Tokyo,Tokyo,JP,35.7118,139.7019,169-0075,Asia/Tokyo
106.205.175.214,106.205.175.215,106.205.0.0,Chamba,Himachal Pradesh,IN,32.55531,76.12647,176314,Asia/Kolkata
101.114.59.88,101.114.59.115,101.114.0.0,Sydney,New South Wales,AU,-33.8265,151.2019,1585,Australia/Sydney
1.2.184.236,1.2.184.239,1.2.0.0,Sawankhalok,Sukhothai,TH,17.31597,99.83186,64110,Asia/Bangkok
105.242.158.128,105.242.158.255,105.242.0.0,Vryburg,North-West,ZA,-26.95659,24.7284,8474,Africa/Johannesburg
104.240.107.170,104.240.107.179,104.240.0.0,Bloomington,Illinois,US,40.4842,-88.99369,61701,America/Chicago
100.41.17.86,100.41.17.86,100.41.0.0,New York City,New York,US,40.71427,-74.00597,10004,America/New_York
101.190.228.156,101.190.228.158,101.190.0.0,Sydney,New South Wales,AU,-33.761,150.78673,2760,Australia/Sydney
106.204.21.236,106.204.21.236,106.204.0.0,Rohtak,Haryana,IN,28.89447,76.58917,124001,Asia/Kolkata
105.242.243.236,105.242.243.237,105.242.0.0,Diepsloot,Gauteng,ZA,-25.9833,28.1167,1685,Africa/Johannesburg
106.205.23.182,106.205.23.183,106.205.0.0,Lucknow,Uttar Pradesh,IN,26.83928,80.92313,226004,Asia/Kolkata
1.146.82.16,1.146.82.27,1.146.0.0,Cannonvale,Queensland,AU,-20.27681,148.69759,4802,Australia/Brisbane
106.128.233.212,106.128.233.221,106.128.0.0,Sapporo,Hokkaido,JP,43.0464,141.3635,062-0912,Asia/Tokyo
104.201.101.204,104.201.101.207,104.201.0.0,Angola,Indiana,US,41.63477,-84.99941,46703,America/Indiana/Indianapolis
103.53.232.20,103.53.232.21,103.53.0.0,Khandwa,Madhya Pradesh,IN,21.81982,76.33802,450881,Asia/Kolkata
1.1.220.160,1.1.220.191,1.1.0.0,Nan,Nan,TH,18.78378,100.77899,55000,Asia/Bangkok
1.101.33.128,1.101.33.159,1.101.0.0,Seoul,Seoul,KR,37.566,126.9784,03141,Asia/Seoul
104.97.144.0,104.97.159.255,104.97.0.0,London,England,GB,51.50853,-0.12574,EC1A,Europe/London
106.196.86.224,106.196.86.231,106.196.0.0,Ropar,Punjab,IN,30.96896,76.52695,140108,Asia/Kolkata
106.205.243.124,106.205.243.127,106.205.0.0,Bhuj,Gujarat,IN,22.3109,70.10688,370630,Asia/Kolkata
104.222.191.0,104.222.191.7,104.222.0.0,New York City,New York,US,40.71427,-74.00597,10004,America/New_York
103.158.31.214,103.158.31.215,103.158.0.0,Chikhli,Maharashtra,IN,20.35046,76.25774,431215,Asia/Kolkata
106.192.149.94,106.192.149.99,106.192.0.0,Mandi,Himachal Pradesh,IN,31.71194,76.93273,175001,Asia/Kolkata
103.23.237.98,103.23.237.98,103.23.0.0,Anūpgarh,Rajasthan,IN,29.19111,73.20861,335704,Asia/Kolkata
101.165.192.152,101.165.192.175,101.165.0.0,Melbourne,Victoria,AU,-37.758,145.0042,3071,Australia/Melbourne
105.68.250.147,105.68.250.147,105.68.0.0,Sale,Rabat-Salé-Kénitra,MA,34.0531,-6.79846,11022,Africa/Casablanca
101.185.101.68,101.185.101.68,101.185.0.0,Port Lincoln,South Australia,AU,-34.72625,135.87442,5606,Australia/Adelaide
106.195.81.68,106.195.81.69,106.195.0.0,Bahādurganj,Bihar,IN,26.17832,87.76062,855115,Asia/Kolkata
1.1.152.72,1.1.152.79,1.1.0.0,Nakhon Si Thammarat,Nakhon Si Thammarat,TH,8.43333,99.96667,80140,Asia/Bangkok
102.53.96.222,102.53.96.223,102.53.0.0,Rabat,Rabat-Salé-Kénitra,MA,34.01325,-6.83255,12152,Africa/Casablanca
102.223.124.236,102.223.124.236,102.223.0.0,Thohoyandou,Limpopo,ZA,-22.94564,30.48497,0929,Africa/Johannesburg
1.187.91.246,1.187.91.247,1.187.0.0,Kharar,Punjab,IN,30.74632,76.64689,140301,Asia/Kolkata
106.193.195.40,106.193.195.47,106.193.0.0,Rahimatpur,Maharashtra,IN,18.11335,74.82038,412802,Asia/Kolkata
101.166.4.98,101.166.4.115,101.166.0.0,Sydney,New South Wales,AU,-33.86785,151.20732,1001,Australia/Sydney
101.176.140.42,101.176.140.62,101.176.0.0,Sydney,New South Wales,AU,-34.0386,151.1001,1490,Australia/Sydney
105.103.156.91,105.103.156.96,105.103.0.0,Sétif,Sétif,DZ,36.19112,5.41373,19034,Africa/Algiers
106.181.80.110,106.181.80.115,106.181.0.0,Yashio,Saitama,JP,35.5994,139.7575,140-0003,Asia/Tokyo
101.174.99.184,101.174.99.255,101.174.0.0,Sydney,New South Wales,AU,-33.85887,151.13279,2046,Australia/Sydney
105.103.159.67,105.103.159.69,105.103.0.0,Blida,Blida,DZ,36.47004,2.8277,35012,Africa/Algiers
106.192.136.36,106.192.136.36,106.192.0.0,Rewāri,Haryana,IN,28.199,76.6183,123401,Asia/Kolkata
106.180.8.245,106.180.8.245,106.180.0.0,Osaka,Ōsaka,JP,34.69374,135.50218,543-0062,Asia/Tokyo
104.143.111.125,104.143.111.125,104.143.0.0,Palo Alto,California,US,37.44188,-122.14302,94301,America/Los_Angeles
106.147.18.0,106.147.20.127,106.147.0.0,Tokyo,Tokyo,JP,35.691,139.7679,101-0047,Asia/Tokyo
104.235.53.58,104.235.53.59,104.235.0.0,Menominee,Illinois,US,42.48778,-90.53318,61025,America/Chicago
1.39.238.80,1.39.238.87,1.39.0.0,Lādnūn,Rajasthan,IN,27.65312,74.39993,341304,Asia/Kolkata
104.44.19.205,104.44.19.205,104.44.0.0,Busan,Busan,KR,35.10168,129.03004,48902,Asia/Seoul
1.158.83.32,1.158.83.43,1.158.0.0,Sydney,New South Wales,AU,-33.69828,150.93172,2155,Australia/Sydney
106.200.54.109,106.200.54.109,106.200.0.0,Pālghāt,Kerala,IN,10.77319,76.65366,678001,Asia/Kolkata
1.47.222.25,1.47.222.33,1.47.0.0,Bangkok,Bangkok,TH,13.7083,100.4562,10110,Asia/Bangkok
106.130.26.2,106.130.26.3,106.130.0.0,Onomichi,Hiroshima,JP,34.383,133.1947,722-0073,Asia/Tokyo
1.53.150.59,1.53.150.59,1.53.0.0,Quận Chín,Ho Chi Minh,VN,10.8397,106.77093,71957,Asia/Ho_Chi_Minh
101.183.142.47,101.183.142.61,101.183.0.0,Townsville,Queensland,AU,-19.26639,146.80569,4810,Australia/Brisbane
105.72.52.158,105.72.52.158,105.72.0.0,Sale,Rabat-Salé-Kénitra,MA,34.0531,-6.79846,11022,Africa/Casablanca
1.1.223.0,1.1.223.15,1.1.0.0,Phetchaburi,Phetchaburi,TH,13.11189,99.94467,76150,Asia/Bangkok
105.191.105.152,105.191.105.153,105.191.0.0,Casablanca,Casablanca-Settat,MA,33.58831,-7.61138,29640,Africa/Casablanca
103.26.251.0,103.26.251.255,103.26.0.0,Kuala Lumpur,Kuala Lumpur,MY,3.1412,101.68653,50050,Asia/Kuala_Lumpur
105.243.232.68,105.243.232.69,105.243.0.0,Johannesburg,Gauteng,ZA,-26.20227,28.04363,2041,Africa/Johannesburg
103.4.154.96,103.4.154.97,103.4.0.0,Cambridge,Waikato,NZ,-37.87822,175.4402,3432,Pacific/Auckland
104.59.63.245,104.59.63.245,104.59.0.0,Liberal,Kansas,US,37.04308,-100.921,67901,America/Chicago
